APRIZESAT 2             
1 28366U 04025A   24158.52627299  .00000331  00000+0  11746-3 0  9996
2 28366  98.0832 357.3594 0106043 326.7289  32.7262 14.37310161 45215
SAUDICOMSAT 1           
1 28369U 04025D   24158.46498060  .00000891  00000+0  22145-3 0  9990
2 28369  98.5366 139.4102 0033901 129.9993 230.4188 14.53975836 56429
SAUDICOMSAT 2           
1 28370U 04025E   24158.51006116  .00000907  00000+0  24873-3 0  9993
2 28370  98.6286 140.2431 0056255 343.3165  16.6175 14.48724222 52801
APRIZESAT 1             
1 28372U 04025G   24158.45549233  .00000571  00000+0  15599-3 0  9992
2 28372  98.5907 139.5531 0044058 246.5285 113.1274 14.50684132 54464
NANOSAT-1               
1 28493U 04049B   24158.60009274  .00002376  00000+0  34881-3 0  9995
2 28493  98.1457 272.0483 0005024 139.1875 220.9711 14.76478819 46000
SAUDICOMSAT 7           
1 31119U 07012C   24158.43335590  .00001621  00000+0  31297-3 0  9991
2 31119  98.2769 112.1173 0057960 359.1353   0.9739 14.63796962913969
SAUDICOMSAT 6           
1 31121U 07012E   24158.42294189  .00001240  00000+0  25616-3 0  9996
2 31121  98.3098 106.8618 0075698 112.8036 248.1183 14.60402261911962
SAUDICOMSAT 5           
1 31124U 07012H   24158.44576891  .00001443  00000+0  27026-3 0  9996
2 31124  98.2474 113.1371 0048238 296.6886  62.9382 14.65659534914972
SAUDICOMSAT 3           
1 31125U 07012J   24158.44102962  .00001506  00000+0  27004-3 0  9997
2 31125  98.2139 113.9096 0040055 232.0140 127.7444 14.67761340916038
SAUDICOMSAT 4           
1 31127U 07012L   24158.42836768  .00001589  00000+0  31517-3 0  9990
2 31127  98.2973 110.6254 0067072  53.2667 307.4668 14.62243567913023
APRIZESAT 4             
1 35684U 09041D   24158.41789230  .00001501  00000+0  19612-3 0  9992
2 35684  98.2372 204.9476 0044977 196.1779 163.7999 14.81382186801580
APRIZESAT 3             
1 35686U 09041F   24158.29208838  .00002005  00000+0  19953-3 0  9998
2 35686  98.1158 272.0880 0067485 349.8887  10.0968 14.91209716805744
AISSAT 1                
1 36797U 10035C   24158.34060186  .00003494  00000+0  35825-3 0  9994
2 36797  98.1874  19.4819 0009822 349.8467  10.2551 14.91111280753552
S-NET D                 
1 43186U 18014G   24158.47853774  .00007899  00000+0  56795-3 0  9998
2 43186  97.5925  60.5067 0011584  48.7895 311.4328 15.04463147346892
S-NET B                 
1 43187U 18014H   24158.48075489  .00007944  00000+0  57118-3 0  9990
2 43187  97.5931  60.4578 0012319  44.0308 316.1897 15.04454868346894
S-NET A                 
1 43188U 18014J   24158.28016896  .00007616  00000+0  54778-3 0  9991
2 43188  97.5936  60.3724 0012221  45.4143 314.8078 15.04460048346866
S-NET C                 
1 43189U 18014K   24158.28337012  .00007547  00000+0  54271-3 0  9999
2 43189  97.5950  60.3210 0013719  37.7668 322.4518 15.04452282345417
SALSAT                  
1 46495U 20068K   24158.42851969  .00009228  00000+0  52521-3 0  9996
2 46495  97.8161 117.4511 0013590 359.1033   1.0171 15.13002424202684
